{
  "links" : {
    "next" : "https://api.nasa.gov/neo/rest/v1/feed?start_date=2003-02-23&end_date=2003-02-23&detailed=true&api_key=t0TVs3DtDT2H8Oy2Zy8m2eVrNsAVKAexjcZXUckd",
    "prev" : "https://api.nasa.gov/neo/rest/v1/feed?start_date=2003-02-21&end_date=2003-02-21&detailed=true&api_key=t0TVs3DtDT2H8Oy2Zy8m2eVrNsAVKAexjcZXUckd",
    "self" : "https://api.nasa.gov/neo/rest/v1/feed?start_date=2003-02-22&end_date=2003-02-22&detailed=true&api_key=t0TVs3DtDT2H8Oy2Zy8m2eVrNsAVKAexjcZXUckd"
  },
  "element_count" : 6,
  "near_earth_objects" : {
    "2003-02-22" : [ {
      "links" : {
        "self" : "https://api.nasa.gov/neo/rest/v1/neo/3522123?api_key=t0TVs3DtDT2H8Oy2Zy8m2eVrNsAVKAexjcZXUckd"
      },
      "neo_reference_id" : "3522123",
      "name" : "(2010 JE87)",
      "nasa_jpl_url" : "http://ssd.jpl.nasa.gov/sbdb.cgi?sstr=3522123",
      "absolute_magnitude_h" : 20.8,
      "estimated_diameter" : {
        "kilometers" : {
          "estimated_diameter_min" : 0.1838886721,
          "estimated_diameter_max" : 0.411187571
        },
        "meters" : {
          "estimated_diameter_min" : 183.8886720703,
          "estimated_diameter_max" : 411.1875710413
        },
        "miles" : {
          "estimated_diameter_min" : 0.1142630881,
          "estimated_diameter_max" : 0.2555000322
        },
        "feet" : {
          "estimated_diameter_min" : 603.309310875,
          "estimated_diameter_max" : 1349.040630575
        }
      },
      "is_potentially_hazardous_asteroid" : true,
      "close_approach_data" : [ {
        "close_approach_date" : "2003-02-22",
        "epoch_date_close_approach" : 1045900800000,
        "relative_velocity" : {
          "kilometers_per_second" : "11.1737357959",
          "kilometers_per_hour" : "40225.4488653552",
          "miles_per_hour" : "24994.5296019203"
        },
        "miss_distance" : {
          "astronomical" : "0.3633229107",
          "lunar" : "141.332611084",
          "kilometers" : "54352336",
          "miles" : "33772976"
        },
        "orbiting_body" : "Earth"
      } ],
      "orbital_data" : {
        "orbit_id" : "26",
        "orbit_determination_date" : "2016-06-02 06:16:36",
        "orbit_uncertainty" : "0",
        "minimum_orbit_intersection" : ".0358855",
        "jupiter_tisserand_invariant" : "6.471",
        "epoch_osculation" : "2457600.5",
        "eccentricity" : ".4369869334763042",
        "semi_major_axis" : ".9044267812074905",
        "inclination" : "16.92122311377372",
        "ascending_node_longitude" : "120.5271704378896",
        "orbital_period" : "314.1655407115817",
        "perihelion_distance" : ".509204095533785",
        "perihelion_argument" : "242.3052675059344",
        "aphelion_distance" : "1.299649466881196",
        "perihelion_time" : "2457604.040984476757",
        "mean_anomaly" : "355.94241173381",
        "mean_motion" : "1.145892700977337",
        "equinox" : "J2000"
      }
    }, {
      "links" : {
        "self" : "https://api.nasa.gov/neo/rest/v1/neo/2468727?api_key=t0TVs3DtDT2H8Oy2Zy8m2eVrNsAVKAexjcZXUckd"
      },
      "neo_reference_id" : "2468727",
      "name" : "468727 (2010 JE87)",
      "nasa_jpl_url" : "http://ssd.jpl.nasa.gov/sbdb.cgi?sstr=2468727",
      "absolute_magnitude_h" : 20.8,
      "estimated_diameter" : {
        "kilometers" : {
          "estimated_diameter_min" : 0.1838886721,
          "estimated_diameter_max" : 0.411187571
        },
        "meters" : {
          "estimated_diameter_min" : 183.8886720703,
          "estimated_diameter_max" : 411.1875710413
        },
        "miles" : {
          "estimated_diameter_min" : 0.1142630881,
          "estimated_diameter_max" : 0.2555000322
        },
        "feet" : {
          "estimated_diameter_min" : 603.309310875,
          "estimated_diameter_max" : 1349.040630575
        }
      },
      "is_potentially_hazardous_asteroid" : true,
      "close_approach_data" : [ {
        "close_approach_date" : "2003-02-22",
        "epoch_date_close_approach" : 1045900800000,
        "relative_velocity" : {
          "kilometers_per_second" : "11.1737356635",
          "kilometers_per_hour" : "40225.44838851",
          "miles_per_hour" : "24994.5293056272"
        },
        "miss_distance" : {
          "astronomical" : "0.3633232772",
          "lunar" : "141.3327484131",
          "kilometers" : "54352388",
          "miles" : "33773008"
        },
        "orbiting_body" : "Earth"
      } ],
      "orbital_data" : {
        "orbit_id" : "29",
        "orbit_determination_date" : "2017-04-06 09:19:20",
        "orbit_uncertainty" : "0",
        "minimum_orbit_intersection" : ".0343851",
        "jupiter_tisserand_invariant" : "6.471",
        "epoch_osculation" : "2458000.5",
        "eccentricity" : ".4369551957466873",
        "semi_major_axis" : ".9044080437219572",
        "inclination" : "16.9208815716098",
        "ascending_node_longitude" : "120.5198624026117",
        "orbital_period" : "314.1557776629186",
        "perihelion_distance" : ".5092222499425508",
        "perihelion_argument" : "242.3237910571342",
        "aphelion_distance" : "1.299593837501363",
        "perihelion_time" : "2457918.222884323871",
        "mean_anomaly" : "94.2836762823692",
        "mean_motion" : "1.145928311992629",
        "equinox" : "J2000"
      }
    }, {
      "links" : {
        "self" : "https://api.nasa.gov/neo/rest/v1/neo/3772396?api_key=t0TVs3DtDT2H8Oy2Zy8m2eVrNsAVKAexjcZXUckd"
      },
      "neo_reference_id" : "3772396",
      "name" : "(2017 FE65)",
      "nasa_jpl_url" : "http://ssd.jpl.nasa.gov/sbdb.cgi?sstr=3772396",
      "absolute_magnitude_h" : 20.62,
      "estimated_diameter" : {
        "kilometers" : {
          "estimated_diameter_min" : 0.1997813652,
          "estimated_diameter_max" : 0.4467247133
        },
        "meters" : {
          "estimated_diameter_min" : 199.78136523,
          "estimated_diameter_max" : 446.7247132921
        },
        "miles" : {
          "estimated_diameter_min" : 0.1241383467,
          "estimated_diameter_max" : 0.2775817818
        },
        "feet" : {
          "estimated_diameter_min" : 655.4506943013,
          "estimated_diameter_max" : 1465.6323083572
        }
      },
      "is_potentially_hazardous_asteroid" : true,
      "close_approach_data" : [ {
        "close_approach_date" : "2003-02-22",
        "epoch_date_close_approach" : 1045900800000,
        "relative_velocity" : {
          "kilometers_per_second" : "14.8070243969",
          "kilometers_per_hour" : "53305.2878287028",
          "miles_per_hour" : "33121.8328733404"
        },
        "miss_distance" : {
          "astronomical" : "0.2915641013",
          "lunar" : "113.4184341431",
          "kilometers" : "43617368",
          "miles" : "27102578"
        },
        "orbiting_body" : "Earth"
      } ],
      "orbital_data" : {
        "orbit_id" : "11",
        "orbit_determination_date" : "2017-05-02 06:23:10",
        "orbit_uncertainty" : "5",
        "minimum_orbit_intersection" : ".0225268",
        "jupiter_tisserand_invariant" : "4.769",
        "epoch_osculation" : "2458000.5",
        "eccentricity" : ".3582582190980799",
        "semi_major_axis" : "1.334849825495237",
        "inclination" : "22.92432496700047",
        "ascending_node_longitude" : "183.8728312977443",
        "orbital_period" : "563.3094545225465",
        "perihelion_distance" : ".856628904249931",
        "perihelion_argument" : "237.5213059888602",
        "aphelion_distance" : "1.813070746740544",
        "perihelion_time" : "2458253.058672738954",
        "mean_anomaly" : "198.5947165344724",
        "mean_motion" : ".6390803440448751",
        "equinox" : "J2000"
      }
    } ]
  }
}